{
 "type": "FeatureCollection",
 "properties": {
  "note": "Derived from MMRDA's alignment file for Line 5 (https://mmrda.maharashtra.gov.in/sites/default/files/2025-03/metro_line-5.kml), which gives the corridor as a polygon about 50 m wide, not a centre line. The centre line runs midway between the polygon's two sides, 24.141 km from its tip at Kapurbawdi to its tip past APMC Kalyan. This is the alignment before the 2026 revision, which moves the stations past Kon Gaon to Line 5A. Simplified to about 1 m by scripts/build-alignment-line5.py.",
  "source_url": "https://mmrda.maharashtra.gov.in/en/division/metro-piu/metro-influence-zone-noc",
  "status": "verified",
  "last_verified": "2026-10-09",
  "length_m": 24141
 },
 "features": [
  {
   "type": "Feature",
   "properties": {
    "name": "Line 5 centre line"
   },
   "geometry": {
    "type": "LineString",
    "coordinates": [
     [
      72.978853,
      19.217987
     ],
     [
      72.978894,
      19.217765
     ],
     [
      72.97947,
      19.217861
     ],
     [
      72.979514,
      19.21784
     ],
     [
      72.979797,
      19.217905
     ],
     [
      72.98056,
      19.218033
     ],
     [
      72.982278,
      19.218319
     ],
     [
      72.982492,
      19.218337
     ],
     [
      72.982506,
      19.218367
     ],
     [
      72.983466,
      19.218529
     ],
     [
      72.983843,
      19.21862
     ],
     [
      72.984113,
      19.218716
     ],
     [
      72.984451,
      19.218871
     ],
     [
      72.987298,
      19.22025
     ],
     [
      72.987362,
      19.220251
     ],
     [
      72.987607,
      19.220391
     ],
     [
      72.989894,
      19.221499
     ],
     [
      72.990068,
      19.22157
     ],
     [
      72.990074,
      19.22161
     ],
     [
      72.990555,
      19.221904
     ],
     [
      72.991476,
      19.222528
     ],
     [
      72.9979,
      19.226252
     ],
     [
      72.998546,
      19.226638
     ],
     [
      72.999979,
      19.227567
     ],
     [
      73.006137,
      19.231074
     ],
     [
      73.007369,
      19.231805
     ],
     [
      73.009056,
      19.232857
     ],
     [
      73.012293,
      19.234685
     ],
     [
      73.012894,
      19.234979
     ],
     [
      73.013601,
      19.235297
     ],
     [
      73.013835,
      19.235431
     ],
     [
      73.01436,
      19.235811
     ],
     [
      73.015457,
      19.236689
     ],
     [
      73.015588,
      19.236824
     ],
     [
      73.015689,
      19.236966
     ],
     [
      73.01579,
      19.237186
     ],
     [
      73.015815,
      19.23727
     ],
     [
      73.015944,
      19.238018
     ],
     [
      73.015997,
      19.238179
     ],
     [
      73.016014,
      19.238369
     ],
     [
      73.016592,
      19.240653
     ],
     [
      73.016666,
      19.240859
     ],
     [
      73.016667,
      19.240972
     ],
     [
      73.017763,
      19.245307
     ],
     [
      73.017838,
      19.245669
     ],
     [
      73.017913,
      19.246203
     ],
     [
      73.017934,
      19.246477
     ],
     [
      73.017944,
      19.247055
     ],
     [
      73.017926,
      19.247423
     ],
     [
      73.017797,
      19.248529
     ],
     [
      73.017779,
      19.248833
     ],
     [
      73.017784,
      19.24913
     ],
     [
      73.017896,
      19.250594
     ],
     [
      73.017947,
      19.25081
     ],
     [
      73.018035,
      19.250981
     ],
     [
      73.018166,
      19.251179
     ],
     [
      73.018362,
      19.251385
     ],
     [
      73.018657,
      19.251546
     ],
     [
      73.020576,
      19.252279
     ],
     [
      73.020787,
      19.25234
     ],
     [
      73.020794,
      19.252374
     ],
     [
      73.021222,
      19.252586
     ],
     [
      73.021615,
      19.252841
     ],
     [
      73.021915,
      19.253078
     ],
     [
      73.02214,
      19.25329
     ],
     [
      73.028336,
      19.260302
     ],
     [
      73.028812,
      19.260812
     ],
     [
      73.032116,
      19.263959
     ],
     [
      73.032157,
      19.263961
     ],
     [
      73.03219,
      19.263993
     ],
     [
      73.032294,
      19.264123
     ],
     [
      73.034055,
      19.265797
     ],
     [
      73.034281,
      19.26598
     ],
     [
      73.034295,
      19.26603
     ],
     [
      73.039259,
      19.270747
     ],
     [
      73.041053,
      19.272513
     ],
     [
      73.041673,
      19.273071
     ],
     [
      73.041993,
      19.27339
     ],
     [
      73.042068,
      19.273428
     ],
     [
      73.042191,
      19.27361
     ],
     [
      73.043687,
      19.27548
     ],
     [
      73.043885,
      19.27569
     ],
     [
      73.043891,
      19.275741
     ],
     [
      73.049771,
      19.283088
     ],
     [
      73.050016,
      19.283387
     ],
     [
      73.050576,
      19.284017
     ],
     [
      73.052876,
      19.286348
     ],
     [
      73.052931,
      19.286365
     ],
     [
      73.053115,
      19.286584
     ],
     [
      73.054806,
      19.288298
     ],
     [
      73.05498,
      19.288442
     ],
     [
      73.055038,
      19.288539
     ],
     [
      73.058826,
      19.292372
     ],
     [
      73.058882,
      19.292395
     ],
     [
      73.059966,
      19.293456
     ],
     [
      73.061,
      19.29443
     ],
     [
      73.061023,
      19.294487
     ],
     [
      73.062079,
      19.295459
     ],
     [
      73.062245,
      19.2956
     ],
     [
      73.06246,
      19.295735
     ],
     [
      73.062695,
      19.295824
     ],
     [
      73.062843,
      19.295852
     ],
     [
      73.062994,
      19.29586
     ],
     [
      73.06315,
      19.295848
     ],
     [
      73.063284,
      19.295824
     ],
     [
      73.063418,
      19.29578
     ],
     [
      73.063665,
      19.295618
     ],
     [
      73.063884,
      19.295452
     ],
     [
      73.064789,
      19.294351
     ],
     [
      73.065411,
      19.293664
     ],
     [
      73.065508,
      19.293522
     ],
     [
      73.06554,
      19.293488
     ],
     [
      73.065577,
      19.293482
     ],
     [
      73.065886,
      19.293134
     ],
     [
      73.06648,
      19.292412
     ],
     [
      73.067551,
      19.291008
     ],
     [
      73.069204,
      19.289077
     ],
     [
      73.069509,
      19.288689
     ],
     [
      73.070413,
      19.287377
     ],
     [
      73.070747,
      19.286922
     ],
     [
      73.072,
      19.285392
     ],
     [
      73.072252,
      19.285067
     ],
     [
      73.072371,
      19.284884
     ],
     [
      73.072569,
      19.284505
     ],
     [
      73.07309,
      19.28317
     ],
     [
      73.073203,
      19.28292
     ],
     [
      73.073337,
      19.282676
     ],
     [
      73.073359,
      19.282618
     ],
     [
      73.073357,
      19.282582
     ],
     [
      73.073497,
      19.282425
     ],
     [
      73.075007,
      19.280543
     ],
     [
      73.075098,
      19.280372
     ],
     [
      73.075211,
      19.280242
     ],
     [
      73.076189,
      19.278878
     ],
     [
      73.078227,
      19.276288
     ],
     [
      73.081655,
      19.27161
     ],
     [
      73.082392,
      19.270636
     ],
     [
      73.083276,
      19.269552
     ],
     [
      73.083274,
      19.269516
     ],
     [
      73.083431,
      19.269368
     ],
     [
      73.085024,
      19.267523
     ],
     [
      73.085121,
      19.267369
     ],
     [
      73.085195,
      19.267281
     ],
     [
      73.085243,
      19.26725
     ],
     [
      73.086944,
      19.264589
     ],
     [
      73.087219,
      19.264225
     ],
     [
      73.087601,
      19.263832
     ],
     [
      73.088557,
      19.262906
     ],
     [
      73.089095,
      19.262425
     ],
     [
      73.089099,
      19.262387
     ],
     [
      73.089282,
      19.262266
     ],
     [
      73.091154,
      19.260765
     ],
     [
      73.091301,
      19.26061
     ],
     [
      73.091374,
      19.260552
     ],
     [
      73.09141,
      19.260548
     ],
     [
      73.091839,
      19.26015
     ],
     [
      73.093748,
      19.258065
     ],
     [
      73.097741,
      19.253833
     ],
     [
      73.098455,
      19.253106
     ],
     [
      73.098866,
      19.25275
     ],
     [
      73.099391,
      19.252359
     ],
     [
      73.101692,
      19.250886
     ],
     [
      73.104491,
      19.249305
     ],
     [
      73.105348,
      19.248736
     ],
     [
      73.10536,
      19.248698
     ],
     [
      73.105402,
      19.248669
     ],
     [
      73.105572,
      19.24858
     ],
     [
      73.106118,
      19.248202
     ],
     [
      73.106691,
      19.247834
     ],
     [
      73.10761,
      19.24731
     ],
     [
      73.107782,
      19.247181
     ],
     [
      73.107866,
      19.247134
     ],
     [
      73.107913,
      19.247129
     ],
     [
      73.108159,
      19.246987
     ],
     [
      73.109044,
      19.246431
     ],
     [
      73.109462,
      19.246227
     ],
     [
      73.10989,
      19.246079
     ],
     [
      73.110247,
      19.246
     ],
     [
      73.110521,
      19.245963
     ],
     [
      73.114157,
      19.245604
     ],
     [
      73.114642,
      19.245576
     ],
     [
      73.114917,
      19.245592
     ],
     [
      73.115194,
      19.245632
     ],
     [
      73.118202,
      19.246218
     ],
     [
      73.119609,
      19.246587
     ],
     [
      73.120013,
      19.246666
     ],
     [
      73.120329,
      19.246702
     ],
     [
      73.12053,
      19.246715
     ],
     [
      73.120959,
      19.246708
     ],
     [
      73.121448,
      19.246665
     ],
     [
      73.121474,
      19.246636
     ],
     [
      73.121694,
      19.246641
     ],
     [
      73.123972,
      19.246462
     ],
     [
      73.12422,
      19.246361
     ],
     [
      73.124362,
      19.246349
     ],
     [
      73.124384,
      19.246375
     ],
     [
      73.124387,
      19.24642
     ],
     [
      73.124466,
      19.246424
     ],
     [
      73.125754,
      19.246329
     ],
     [
      73.126059,
      19.246273
     ],
     [
      73.126387,
      19.246164
     ],
     [
      73.126568,
      19.246081
     ],
     [
      73.126828,
      19.245923
     ],
     [
      73.127279,
      19.245554
     ],
     [
      73.127289,
      19.245509
     ],
     [
      73.127346,
      19.245448
     ],
     [
      73.127507,
      19.245357
     ],
     [
      73.129217,
      19.243867
     ],
     [
      73.129363,
      19.243691
     ],
     [
      73.129412,
      19.24368
     ],
     [
      73.12948,
      19.243623
     ],
     [
      73.129648,
      19.243367
     ],
     [
      73.129687,
      19.243257
     ],
     [
      73.129731,
      19.243048
     ],
     [
      73.129738,
      19.242822
     ],
     [
      73.129611,
      19.241988
     ],
     [
      73.12935,
      19.240456
     ],
     [
      73.129262,
      19.240163
     ],
     [
      73.129207,
      19.240046
     ],
     [
      73.129079,
      19.239864
     ],
     [
      73.129007,
      19.239785
     ],
     [
      73.128954,
      19.239783
     ],
     [
      73.128793,
      19.239603
     ],
     [
      73.1287,
      19.239539
     ],
     [
      73.126849,
      19.238333
     ],
     [
      73.126639,
      19.238236
     ],
     [
      73.126612,
      19.238208
     ],
     [
      73.126601,
      19.238165
     ],
     [
      73.125543,
      19.237358
     ],
     [
      73.125243,
      19.237015
     ],
     [
      73.125017,
      19.236714
     ],
     [
      73.124835,
      19.236501
     ],
     [
      73.124399,
      19.236076
     ],
     [
      73.124378,
      19.236107
     ],
     [
      73.124087,
      19.235926
     ],
     [
      73.123833,
      19.235816
     ],
     [
      73.123312,
      19.23556
     ],
     [
      73.121802,
      19.234947
     ],
     [
      73.12176,
      19.23491
     ],
     [
      73.121819,
      19.234787
     ]
    ]
   }
  }
 ]
}
