{
 "type": "FeatureCollection",
 "properties": {
  "note": "MMRDA approved alignment of 20 Mar 2025 (https://mmrda.maharashtra.gov.in/sites/default/files/2025-03/metro_line_12_4.kmz), centre line 22.166 km from the start point at Kalyan to the end point past Amandoot, plus the 1.229 km connection to the Nilje depot. Simplified to about 1 m by scripts/build-alignment.py.",
  "source_url": "https://mmrda.maharashtra.gov.in/en/division/metro-piu/metro-influence-zone-noc",
  "status": "verified",
  "last_verified": "2026-09-29",
  "length_m": 22166,
  "depot_connection_m": 1229,
  "bend_along_m": 8005
 },
 "features": [
  {
   "type": "Feature",
   "properties": {
    "name": "Line 12 centre line"
   },
   "geometry": {
    "type": "LineString",
    "coordinates": [
     [
      73.12869,
      19.239537
     ],
     [
      73.125618,
      19.237483
     ],
     [
      73.125355,
      19.237227
     ],
     [
      73.124618,
      19.236305
     ],
     [
      73.124453,
      19.23614
     ],
     [
      73.124271,
      19.235996
     ],
     [
      73.123927,
      19.235796
     ],
     [
      73.122093,
      19.235017
     ],
     [
      73.121815,
      19.234882
     ],
     [
      73.121553,
      19.234734
     ],
     [
      73.121177,
      19.234479
     ],
     [
      73.120488,
      19.23394
     ],
     [
      73.120295,
      19.23373
     ],
     [
      73.120163,
      19.233491
     ],
     [
      73.120115,
      19.233345
     ],
     [
      73.120089,
      19.233193
     ],
     [
      73.120086,
      19.233032
     ],
     [
      73.120104,
      19.232868
     ],
     [
      73.120406,
      19.23153
     ],
     [
      73.120466,
      19.231335
     ],
     [
      73.120544,
      19.231168
     ],
     [
      73.120639,
      19.23102
     ],
     [
      73.12077,
      19.230859
     ],
     [
      73.122722,
      19.228707
     ],
     [
      73.122992,
      19.228383
     ],
     [
      73.123195,
      19.228096
     ],
     [
      73.12361,
      19.227432
     ],
     [
      73.123714,
      19.227197
     ],
     [
      73.123763,
      19.226957
     ],
     [
      73.123763,
      19.226773
     ],
     [
      73.123734,
      19.226567
     ],
     [
      73.123462,
      19.225345
     ],
     [
      73.123362,
      19.224989
     ],
     [
      73.123229,
      19.224678
     ],
     [
      73.123081,
      19.224425
     ],
     [
      73.122903,
      19.22419
     ],
     [
      73.122694,
      19.223969
     ],
     [
      73.121884,
      19.223188
     ],
     [
      73.121742,
      19.223008
     ],
     [
      73.121638,
      19.222813
     ],
     [
      73.121587,
      19.222656
     ],
     [
      73.121548,
      19.222452
     ],
     [
      73.12142,
      19.221237
     ],
     [
      73.121352,
      19.221008
     ],
     [
      73.121243,
      19.220804
     ],
     [
      73.120609,
      19.220058
     ],
     [
      73.120131,
      19.219358
     ],
     [
      73.119943,
      19.21911
     ],
     [
      73.118167,
      19.217073
     ],
     [
      73.115092,
      19.213106
     ],
     [
      73.114764,
      19.212718
     ],
     [
      73.114074,
      19.212016
     ],
     [
      73.113171,
      19.211151
     ],
     [
      73.111795,
      19.209763
     ],
     [
      73.111036,
      19.209032
     ],
     [
      73.10963,
      19.207619
     ],
     [
      73.108299,
      19.206253
     ],
     [
      73.101158,
      19.199058
     ],
     [
      73.099928,
      19.197786
     ],
     [
      73.099642,
      19.197465
     ],
     [
      73.099394,
      19.197142
     ],
     [
      73.09754,
      19.194594
     ],
     [
      73.096033,
      19.192475
     ],
     [
      73.09478,
      19.190763
     ],
     [
      73.094085,
      19.189785
     ],
     [
      73.091794,
      19.18674
     ],
     [
      73.091309,
      19.185964
     ],
     [
      73.090777,
      19.184902
     ],
     [
      73.090232,
      19.183916
     ],
     [
      73.090042,
      19.183471
     ],
     [
      73.089773,
      19.182643
     ],
     [
      73.089719,
      19.182434
     ],
     [
      73.089697,
      19.182274
     ],
     [
      73.089698,
      19.182103
     ],
     [
      73.089723,
      19.181934
     ],
     [
      73.089774,
      19.181769
     ],
     [
      73.089853,
      19.181605
     ],
     [
      73.089951,
      19.181462
     ],
     [
      73.090075,
      19.181326
     ],
     [
      73.090216,
      19.181211
     ],
     [
      73.090424,
      19.181082
     ],
     [
      73.092821,
      19.17977
     ],
     [
      73.09321,
      19.179527
     ],
     [
      73.093584,
      19.179264
     ],
     [
      73.094113,
      19.178838
     ],
     [
      73.09461,
      19.178366
     ],
     [
      73.095059,
      19.177863
     ],
     [
      73.095468,
      19.177321
     ],
     [
      73.095685,
      19.176991
     ],
     [
      73.095884,
      19.176652
     ],
     [
      73.096066,
      19.176305
     ],
     [
      73.09623,
      19.175949
     ],
     [
      73.096415,
      19.175481
     ],
     [
      73.097119,
      19.173489
     ],
     [
      73.097339,
      19.172995
     ],
     [
      73.097583,
      19.17258
     ],
     [
      73.09893,
      19.170615
     ],
     [
      73.09909,
      19.170337
     ],
     [
      73.099185,
      19.170091
     ],
     [
      73.099525,
      19.168991
     ],
     [
      73.099571,
      19.168724
     ],
     [
      73.099568,
      19.168471
     ],
     [
      73.099505,
      19.168179
     ],
     [
      73.099376,
      19.167897
     ],
     [
      73.099194,
      19.167655
     ],
     [
      73.098955,
      19.167448
     ],
     [
      73.098803,
      19.167354
     ],
     [
      73.098611,
      19.167262
     ],
     [
      73.097015,
      19.166604
     ],
     [
      73.096706,
      19.166464
     ],
     [
      73.096271,
      19.166209
     ],
     [
      73.095882,
      19.165906
     ],
     [
      73.091729,
      19.161871
     ],
     [
      73.091585,
      19.161703
     ],
     [
      73.091485,
      19.161544
     ],
     [
      73.091412,
      19.161368
     ],
     [
      73.091372,
      19.161183
     ],
     [
      73.091363,
      19.161031
     ],
     [
      73.091376,
      19.160878
     ],
     [
      73.09147,
      19.16055
     ],
     [
      73.093672,
      19.155226
     ],
     [
      73.093825,
      19.154707
     ],
     [
      73.093911,
      19.154172
     ],
     [
      73.093934,
      19.153633
     ],
     [
      73.093999,
      19.139879
     ],
     [
      73.094602,
      19.128428
     ],
     [
      73.094609,
      19.127798
     ],
     [
      73.094555,
      19.127223
     ],
     [
      73.094438,
      19.126647
     ],
     [
      73.094263,
      19.126094
     ],
     [
      73.094028,
      19.125553
     ],
     [
      73.093846,
      19.125216
     ],
     [
      73.093641,
      19.124893
     ],
     [
      73.09237,
      19.123109
     ],
     [
      73.092112,
      19.122723
     ],
     [
      73.091768,
      19.122129
     ],
     [
      73.091468,
      19.121503
     ],
     [
      73.088829,
      19.114601
     ],
     [
      73.088733,
      19.114315
     ],
     [
      73.088683,
      19.114074
     ],
     [
      73.088667,
      19.113848
     ],
     [
      73.088678,
      19.113606
     ],
     [
      73.089014,
      19.110666
     ],
     [
      73.089304,
      19.107089
     ],
     [
      73.089636,
      19.101172
     ],
     [
      73.089683,
      19.099646
     ],
     [
      73.089675,
      19.099194
     ],
     [
      73.089647,
      19.098733
     ],
     [
      73.089589,
      19.098211
     ],
     [
      73.089505,
      19.097694
     ],
     [
      73.088745,
      19.093934
     ],
     [
      73.088636,
      19.093518
     ],
     [
      73.088229,
      19.092298
     ],
     [
      73.088167,
      19.092039
     ],
     [
      73.088156,
      19.09183
     ],
     [
      73.08818,
      19.091614
     ],
     [
      73.088232,
      19.091424
     ],
     [
      73.088471,
      19.090766
     ],
     [
      73.088505,
      19.090551
     ],
     [
      73.088505,
      19.090314
     ],
     [
      73.08839,
      19.08858
     ],
     [
      73.088299,
      19.087706
     ],
     [
      73.088193,
      19.087008
     ],
     [
      73.087744,
      19.084491
     ],
     [
      73.087691,
      19.084294
     ],
     [
      73.087619,
      19.084108
     ],
     [
      73.087525,
      19.083931
     ],
     [
      73.087412,
      19.083765
     ],
     [
      73.087232,
      19.083559
     ],
     [
      73.0863,
      19.082607
     ],
     [
      73.086155,
      19.082427
     ],
     [
      73.086077,
      19.082292
     ],
     [
      73.086016,
      19.08214
     ],
     [
      73.085979,
      19.08199
     ],
     [
      73.085963,
      19.081829
     ],
     [
      73.085984,
      19.081577
     ],
     [
      73.086059,
      19.081341
     ],
     [
      73.08672,
      19.080152
     ],
     [
      73.086872,
      19.079828
     ],
     [
      73.087002,
      19.079496
     ],
     [
      73.087738,
      19.07733
     ],
     [
      73.08779,
      19.077032
     ],
     [
      73.087788,
      19.076888
     ],
     [
      73.087766,
      19.076745
     ],
     [
      73.087705,
      19.076556
     ],
     [
      73.087605,
      19.076372
     ],
     [
      73.087477,
      19.076214
     ],
     [
      73.087304,
      19.076057
     ],
     [
      73.084616,
      19.073994
     ],
     [
      73.084362,
      19.073843
     ],
     [
      73.084095,
      19.073755
     ],
     [
      73.083813,
      19.073728
     ],
     [
      73.083506,
      19.073764
     ],
     [
      73.079595,
      19.074525
     ],
     [
      73.07842,
      19.074796
     ]
    ]
   }
  },
  {
   "type": "Feature",
   "properties": {
    "name": "Nilje depot connection"
   },
   "geometry": {
    "type": "LineString",
    "coordinates": [
     [
      73.088458,
      19.151181
     ],
     [
      73.088619,
      19.151015
     ],
     [
      73.088808,
      19.150864
     ],
     [
      73.089016,
      19.150738
     ],
     [
      73.08924,
      19.150639
     ],
     [
      73.089457,
      19.150573
     ],
     [
      73.092972,
      19.149742
     ],
     [
      73.093147,
      19.149673
     ],
     [
      73.093315,
      19.149572
     ],
     [
      73.093457,
      19.149451
     ],
     [
      73.093582,
      19.149304
     ],
     [
      73.093686,
      19.149122
     ],
     [
      73.093755,
      19.148916
     ],
     [
      73.093852,
      19.148094
     ],
     [
      73.093828,
      19.146927
     ],
     [
      73.093794,
      19.146323
     ],
     [
      73.093806,
      19.143592
     ]
    ]
   }
  }
 ]
}
