{
 "type": "FeatureCollection",
 "properties": {
  "note": "Derived from DPR (April 2019) Table 4.3 horizontal alignment coordinates. Datum assumed WGS84 UTM zone 43N (the DPR does not state it). Approximate. This is the 2019 DPR alignment (20.756 km, APMC Kalyan to Taloja); it does not include the later Kalyan station extension or any later realignment.",
  "source_url": "https://mmrda.maharashtra.gov.in/sites/default/files/2021-10/Metro%20Line%2012.pdf",
  "last_verified": "2026-09-28",
  "status": "unverified"
 },
 "features": [
  {
   "type": "Feature",
   "properties": {
    "name": "Metro Line 12 alignment (DPR 2019, approximate)",
    "chainage_start_m": -403.688,
    "chainage_end_m": 20645.678
   },
   "geometry": {
    "type": "LineString",
    "coordinates": [
     [
      73.125403,
      19.23725
     ],
     [
      73.125383,
      19.237223
     ],
     [
      73.124848,
      19.236476
     ],
     [
      73.12411,
      19.235925
     ],
     [
      73.123244,
      19.235552
     ],
     [
      73.122379,
      19.235177
     ],
     [
      73.12158,
      19.234691
     ],
     [
      73.120869,
      19.234091
     ],
     [
      73.120177,
      19.233473
     ],
     [
      73.119805,
      19.232656
     ],
     [
      73.119974,
      19.23178
     ],
     [
      73.12055,
      19.231064
     ],
     [
      73.121166,
      19.230375
     ],
     [
      73.121782,
      19.229687
     ],
     [
      73.122398,
      19.228999
     ],
     [
      73.123004,
      19.228303
     ],
     [
      73.123512,
      19.22754
     ],
     [
      73.123739,
      19.226682
     ],
     [
      73.123561,
      19.225795
     ],
     [
      73.123318,
      19.224923
     ],
     [
      73.122869,
      19.224131
     ],
     [
      73.122224,
      19.223468
     ],
     [
      73.121635,
      19.222766
     ],
     [
      73.121482,
      19.221878
     ],
     [
      73.121318,
      19.220993
     ],
     [
      73.120779,
      19.220251
     ],
     [
      73.120261,
      19.219494
     ],
     [
      73.11968,
      19.21878
     ],
     [
      73.119068,
      19.218089
     ],
     [
      73.11846,
      19.217394
     ],
     [
      73.117884,
      19.216675
     ],
     [
      73.117319,
      19.215949
     ],
     [
      73.116751,
      19.215224
     ],
     [
      73.116181,
      19.214502
     ],
     [
      73.115616,
      19.213775
     ],
     [
      73.115052,
      19.213048
     ],
     [
      73.114441,
      19.212356
     ],
     [
      73.11378,
      19.211707
     ],
     [
      73.113116,
      19.21106
     ],
     [
      73.112457,
      19.210409
     ],
     [
      73.111805,
      19.209752
     ],
     [
      73.111137,
      19.209109
     ],
     [
      73.110478,
      19.208457
     ],
     [
      73.109826,
      19.2078
     ],
     [
      73.109168,
      19.207148
     ],
     [
      73.108499,
      19.206506
     ],
     [
      73.107831,
      19.205864
     ],
     [
      73.107162,
      19.205221
     ],
     [
      73.106494,
      19.204578
     ],
     [
      73.105841,
      19.203922
     ],
     [
      73.105189,
      19.203265
     ],
     [
      73.104537,
      19.202607
     ],
     [
      73.103886,
      19.201949
     ],
     [
      73.103235,
      19.20129
     ],
     [
      73.102586,
      19.20063
     ],
     [
      73.10194,
      19.199968
     ],
     [
      73.101289,
      19.199309
     ],
     [
      73.10064,
      19.198649
     ],
     [
      73.100004,
      19.197978
     ],
     [
      73.0994,
      19.19728
     ],
     [
      73.098856,
      19.196539
     ],
     [
      73.098319,
      19.195794
     ],
     [
      73.097781,
      19.195049
     ],
     [
      73.097247,
      19.194302
     ],
     [
      73.096714,
      19.193554
     ],
     [
      73.096182,
      19.192806
     ],
     [
      73.095647,
      19.192059
     ],
     [
      73.095105,
      19.191317
     ],
     [
      73.094568,
      19.190571
     ],
     [
      73.094035,
      19.189823
     ],
     [
      73.093488,
      19.189085
     ],
     [
      73.09294,
      19.188346
     ],
     [
      73.092393,
      19.187607
     ],
     [
      73.091846,
      19.186869
     ],
     [
      73.091334,
      19.186108
     ],
     [
      73.090909,
      19.1853
     ],
     [
      73.090487,
      19.184491
     ],
     [
      73.090066,
      19.183681
     ],
     [
      73.089792,
      19.182821
     ],
     [
      73.089887,
      19.181929
     ],
     [
      73.09034,
      19.181141
     ],
     [
      73.091072,
      19.180572
     ],
     [
      73.091877,
      19.180091
     ],
     [
      73.092679,
      19.179605
     ],
     [
      73.093452,
      19.179081
     ],
     [
      73.094191,
      19.178512
     ],
     [
      73.094892,
      19.177903
     ],
     [
      73.095553,
      19.177254
     ],
     [
      73.096172,
      19.176568
     ],
     [
      73.096746,
      19.175848
     ],
     [
      73.097272,
      19.175096
     ],
     [
      73.09775,
      19.174315
     ],
     [
      73.098177,
      19.173508
     ],
     [
      73.098553,
      19.172679
     ],
     [
      73.098906,
      19.17184
     ],
     [
      73.099259,
      19.171001
     ],
     [
      73.099613,
      19.170163
     ],
     [
      73.099966,
      19.169324
     ],
     [
      73.100132,
      19.168449
     ],
     [
      73.09963,
      19.167711
     ],
     [
      73.098771,
      19.167326
     ],
     [
      73.097898,
      19.166967
     ],
     [
      73.097027,
      19.166607
     ],
     [
      73.096211,
      19.166147
     ],
     [
      73.095516,
      19.165532
     ],
     [
      73.094852,
      19.164885
     ],
     [
      73.094189,
      19.164239
     ],
     [
      73.093525,
      19.163592
     ],
     [
      73.092861,
      19.162946
     ],
     [
      73.092197,
      19.162299
     ],
     [
      73.091563,
      19.161628
     ],
     [
      73.091379,
      19.160761
     ],
     [
      73.091831,
      19.159986
     ],
     [
      73.092524,
      19.159367
     ],
     [
      73.093217,
      19.158749
     ],
     [
      73.093911,
      19.158132
     ],
     [
      73.094605,
      19.157514
     ],
     [
      73.095298,
      19.156896
     ],
     [
      73.095919,
      19.156215
     ],
     [
      73.09635,
      19.155412
     ],
     [
      73.096565,
      19.154535
     ],
     [
      73.09655,
      19.153634
     ],
     [
      73.096307,
      19.152763
     ],
     [
      73.095914,
      19.15194
     ],
     [
      73.095515,
      19.151121
     ],
     [
      73.095115,
      19.150301
     ],
     [
      73.094715,
      19.149482
     ],
     [
      73.094331,
      19.148656
     ],
     [
      73.094072,
      19.147788
     ],
     [
      73.093968,
      19.146891
     ],
     [
      73.093967,
      19.145988
     ],
     [
      73.093971,
      19.145084
     ],
     [
      73.093975,
      19.144181
     ],
     [
      73.093979,
      19.143278
     ],
     [
      73.093983,
      19.142374
     ],
     [
      73.093987,
      19.141471
     ],
     [
      73.093991,
      19.140568
     ],
     [
      73.093995,
      19.139665
     ],
     [
      73.094014,
      19.138761
     ],
     [
      73.094061,
      19.137859
     ],
     [
      73.094109,
      19.136957
     ],
     [
      73.094157,
      19.136055
     ],
     [
      73.094205,
      19.135153
     ],
     [
      73.094253,
      19.134251
     ],
     [
      73.094301,
      19.133349
     ],
     [
      73.094349,
      19.132446
     ],
     [
      73.094397,
      19.131544
     ],
     [
      73.094445,
      19.130642
     ],
     [
      73.094494,
      19.12974
     ],
     [
      73.094542,
      19.128838
     ],
     [
      73.094576,
      19.127935
     ],
     [
      73.094493,
      19.127036
     ],
     [
      73.094266,
      19.12616
     ],
     [
      73.0939,
      19.125327
     ],
     [
      73.093413,
      19.124553
     ],
     [
      73.092896,
      19.123794
     ],
     [
      73.09238,
      19.123036
     ],
     [
      73.091883,
      19.122266
     ],
     [
      73.091483,
      19.121448
     ],
     [
      73.091149,
      19.120602
     ],
     [
      73.090817,
      19.119755
     ],
     [
      73.090484,
      19.118909
     ],
     [
      73.090152,
      19.118063
     ],
     [
      73.08982,
      19.117216
     ],
     [
      73.089491,
      19.116369
     ],
     [
      73.089227,
      19.115503
     ],
     [
      73.089167,
      19.114603
     ],
     [
      73.089196,
      19.1137
     ],
     [
      73.089224,
      19.112797
     ],
     [
      73.089253,
      19.111894
     ],
     [
      73.089282,
      19.110991
     ],
     [
      73.089311,
      19.110088
     ],
     [
      73.089339,
      19.109186
     ],
     [
      73.089368,
      19.108283
     ],
     [
      73.089397,
      19.10738
     ],
     [
      73.089425,
      19.106477
     ],
     [
      73.089454,
      19.105574
     ],
     [
      73.089483,
      19.104671
     ],
     [
      73.089512,
      19.103768
     ],
     [
      73.08954,
      19.102865
     ],
     [
      73.089569,
      19.101962
     ],
     [
      73.089598,
      19.101059
     ],
     [
      73.089626,
      19.100157
     ],
     [
      73.089655,
      19.099254
     ],
     [
      73.089606,
      19.098353
     ],
     [
      73.089437,
      19.097464
     ],
     [
      73.089263,
      19.096576
     ],
     [
      73.089089,
      19.095688
     ],
     [
      73.088915,
      19.0948
     ],
     [
      73.088755,
      19.09391
     ],
     [
      73.088653,
      19.093011
     ],
     [
      73.088555,
      19.092113
     ],
     [
      73.088505,
      19.091211
     ],
     [
      73.088476,
      19.090308
     ],
     [
      73.088306,
      19.089421
     ],
     [
      73.088082,
      19.088543
     ],
     [
      73.087858,
      19.087665
     ],
     [
      73.087633,
      19.086788
     ],
     [
      73.087409,
      19.08591
     ],
     [
      73.087186,
      19.085032
     ],
     [
      73.087087,
      19.084136
     ],
     [
      73.087254,
      19.08325
     ],
     [
      73.087558,
      19.082394
     ],
     [
      73.087934,
      19.081569
     ],
     [
      73.088621,
      19.080948
     ],
     [
      73.089082,
      19.080168
     ],
     [
      73.089406,
      19.079319
     ],
     [
      73.08973,
      19.07847
     ],
     [
      73.090054,
      19.077621
     ],
     [
      73.090377,
      19.076772
     ],
     [
      73.090701,
      19.075922
     ],
     [
      73.091025,
      19.075073
     ],
     [
      73.091173,
      19.074685
     ]
    ]
   }
  }
 ]
}